{
    "week": 294,
    "satellites": [
        {
            "Name": "BEIDOU-2 IGSO-1 (C06)",
            "Line1": "1 36828U 10036A   24329.49463914 -.00000042  00000+0  00000+0 0  9992",
            "Line2": "2 36828  54.2567 168.1119 0042637 205.7892 334.9218  1.00284759 52384",
            "SatelliteNumber": "36828",
            "Classification": "U",
            "LaunchYear": "10",
            "LaunchNumber": "036",
            "PieceOfLaunch": "A",
            "EpochYear": "24",
            "EpochDay": 329.49463914,
            "FirstDerivativeMeanMotion": -4.2e-07,
            "SecondDerivativeMeanMotion": "00000+0",
            "BSTAR": "00000+0",
            "SetNumber": "999",
            "Inclination": 54.2567,
            "RAAN": 168.1119,
            "Eccentricity": 0.0042637,
            "ArgumentOfPerigee": 205.7892,
            "MeanAnomaly": 334.9218,
            "MeanMotion": 1.00284759,
            "RevolutionNumber": "5238"
        },
        {
            "Name": "BEIDOU-2 G4 (C04)",
            "Line1": "1 37210U 10057A   24329.75863125 -.00000098  00000+0  00000+0 0  9999",
            "Line2": "2 37210   2.2355  70.1137 0009541 180.1960 246.9967  1.00272986 51571",
            "SatelliteNumber": "37210",
            "Classification": "U",
            "LaunchYear": "10",
            "LaunchNumber": "057",
            "PieceOfLaunch": "A",
            "EpochYear": "24",
            "EpochDay": 329.75863125,
            "FirstDerivativeMeanMotion": -9.8e-07,
            "SecondDerivativeMeanMotion": "00000+0",
            "BSTAR": "00000+0",
            "SetNumber": "999",
            "Inclination": 2.2355,
            "RAAN": 70.1137,
            "Eccentricity": 0.0009541,
            "ArgumentOfPerigee": 180.196,
            "MeanAnomaly": 246.9967,
            "MeanMotion": 1.00272986,
            "RevolutionNumber": "5157"
        },
        {
            "Name": "BEIDOU-2 IGSO-2 (C07)",
            "Line1": "1 37256U 10068A   24329.78826965 -.00000214  00000+0  00000+0 0  9995",
            "Line2": "2 37256  48.5860 278.8581 0037920 218.3999 315.8221  1.00251701 51079",
            "SatelliteNumber": "37256",
            "Classification": "U",
            "LaunchYear": "10",
            "LaunchNumber": "068",
            "PieceOfLaunch": "A",
            "EpochYear": "24",
            "EpochDay": 329.78826965,
            "FirstDerivativeMeanMotion": -2.14e-06,
            "SecondDerivativeMeanMotion": "00000+0",
            "BSTAR": "00000+0",
            "SetNumber": "999",
            "Inclination": 48.586,
            "RAAN": 278.8581,
            "Eccentricity": 0.003792,
            "ArgumentOfPerigee": 218.3999,
            "MeanAnomaly": 315.8221,
            "MeanMotion": 1.00251701,
            "RevolutionNumber": "5107"
        },
        {
            "Name": "BEIDOU-2 IGSO-3 (C08)",
            "Line1": "1 37384U 11013A   24328.93618652 -.00000201  00000+0  00000+0 0  9992",
            "Line2": "2 37384  61.5883  45.5767 0031675 181.1619 281.1885  1.00269007 49956",
            "SatelliteNumber": "37384",
            "Classification": "U",
            "LaunchYear": "11",
            "LaunchNumber": "013",
            "PieceOfLaunch": "A",
            "EpochYear": "24",
            "EpochDay": 328.93618652,
            "FirstDerivativeMeanMotion": -2.01e-06,
            "SecondDerivativeMeanMotion": "00000+0",
            "BSTAR": "00000+0",
            "SetNumber": "999",
            "Inclination": 61.5883,
            "RAAN": 45.5767,
            "Eccentricity": 0.0031675,
            "ArgumentOfPerigee": 181.1619,
            "MeanAnomaly": 281.1885,
            "MeanMotion": 1.00269007,
            "RevolutionNumber": "4995"
        },
        {
            "Name": "BEIDOU-2 IGSO-4 (C09)",
            "Line1": "1 37763U 11038A   24328.86294007  .00000023  00000+0  00000+0 0  9997",
            "Line2": "2 37763  54.5623 170.7662 0129668 228.5517  71.0184  1.00274763 48928",
            "SatelliteNumber": "37763",
            "Classification": "U",
            "LaunchYear": "11",
            "LaunchNumber": "038",
            "PieceOfLaunch": "A",
            "EpochYear": "24",
            "EpochDay": 328.86294007,
            "FirstDerivativeMeanMotion": 2.3e-07,
            "SecondDerivativeMeanMotion": "00000+0",
            "BSTAR": "00000+0",
            "SetNumber": "999",
            "Inclination": 54.5623,
            "RAAN": 170.7662,
            "Eccentricity": 0.0129668,
            "ArgumentOfPerigee": 228.5517,
            "MeanAnomaly": 71.0184,
            "MeanMotion": 1.00274763,
            "RevolutionNumber": "4892"
        },
        {
            "Name": "BEIDOU-2 IGSO-5 (C10)",
            "Line1": "1 37948U 11073A   24328.83733877 -.00000214  00000+0  00000+0 0  9994",
            "Line2": "2 37948  48.7228 278.5655 0100966 222.1174 317.7977  1.00256901 47414",
            "SatelliteNumber": "37948",
            "Classification": "U",
            "LaunchYear": "11",
            "LaunchNumber": "073",
            "PieceOfLaunch": "A",
            "EpochYear": "24",
            "EpochDay": 328.83733877,
            "FirstDerivativeMeanMotion": -2.14e-06,
            "SecondDerivativeMeanMotion": "00000+0",
            "BSTAR": "00000+0",
            "SetNumber": "999",
            "Inclination": 48.7228,
            "RAAN": 278.5655,
            "Eccentricity": 0.0100966,
            "ArgumentOfPerigee": 222.1174,
            "MeanAnomaly": 317.7977,
            "MeanMotion": 1.00256901,
            "RevolutionNumber": "4741"
        },
        {
            "Name": "BEIDOU-2 G5 (C05)",
            "Line1": "1 38091U 12008A   24329.81000510  .00000071  00000+0  00000+0 0  9993",
            "Line2": "2 38091   2.1559  70.9137 0011311 223.1462 120.5639  1.00268621 46775",
            "SatelliteNumber": "38091",
            "Classification": "U",
            "LaunchYear": "12",
            "LaunchNumber": "008",
            "PieceOfLaunch": "A",
            "EpochYear": "24",
            "EpochDay": 329.8100051,
            "FirstDerivativeMeanMotion": 7.1e-07,
            "SecondDerivativeMeanMotion": "00000+0",
            "BSTAR": "00000+0",
            "SetNumber": "999",
            "Inclination": 2.1559,
            "RAAN": 70.9137,
            "Eccentricity": 0.0011311,
            "ArgumentOfPerigee": 223.1462,
            "MeanAnomaly": 120.5639,
            "MeanMotion": 1.00268621,
            "RevolutionNumber": "4677"
        },
        {
            "Name": "BEIDOU-2 M3 (C11)",
            "Line1": "1 38250U 12018A   24329.48144588 -.00000074  00000+0  00000+0 0  9992",
            "Line2": "2 38250  56.2257 323.9979 0025470 267.0398  92.6819  1.86233707 85681",
            "SatelliteNumber": "38250",
            "Classification": "U",
            "LaunchYear": "12",
            "LaunchNumber": "018",
            "PieceOfLaunch": "A",
            "EpochYear": "24",
            "EpochDay": 329.48144588,
            "FirstDerivativeMeanMotion": -7.4e-07,
            "SecondDerivativeMeanMotion": "00000+0",
            "BSTAR": "00000+0",
            "SetNumber": "999",
            "Inclination": 56.2257,
            "RAAN": 323.9979,
            "Eccentricity": 0.002547,
            "ArgumentOfPerigee": 267.0398,
            "MeanAnomaly": 92.6819,
            "MeanMotion": 1.86233707,
            "RevolutionNumber": "8568"
        },
        {
            "Name": "BEIDOU-2 M4 (C12)",
            "Line1": "1 38251U 12018B   24329.41192698 -.00000073  00000+0  00000+0 0  9990",
            "Line2": "2 38251  56.1309 323.2597 0016380 269.3637  90.4610  1.86232137 85332",
            "SatelliteNumber": "38251",
            "Classification": "U",
            "LaunchYear": "12",
            "LaunchNumber": "018",
            "PieceOfLaunch": "B",
            "EpochYear": "24",
            "EpochDay": 329.41192698,
            "FirstDerivativeMeanMotion": -7.3e-07,
            "SecondDerivativeMeanMotion": "00000+0",
            "BSTAR": "00000+0",
            "SetNumber": "999",
            "Inclination": 56.1309,
            "RAAN": 323.2597,
            "Eccentricity": 0.001638,
            "ArgumentOfPerigee": 269.3637,
            "MeanAnomaly": 90.461,
            "MeanMotion": 1.86232137,
            "RevolutionNumber": "8533"
        },
        {
            "Name": "BEIDOU-2 M6 (C14)",
            "Line1": "1 38775U 12050B   24328.58462731 -.00000020  00000+0  00000+0 0  9994",
            "Line2": "2 38775  56.0461  81.8421 0010672 341.5781  18.3700  1.86231009 83036",
            "SatelliteNumber": "38775",
            "Classification": "U",
            "LaunchYear": "12",
            "LaunchNumber": "050",
            "PieceOfLaunch": "B",
            "EpochYear": "24",
            "EpochDay": 328.58462731,
            "FirstDerivativeMeanMotion": -2e-07,
            "SecondDerivativeMeanMotion": "00000+0",
            "BSTAR": "00000+0",
            "SetNumber": "999",
            "Inclination": 56.0461,
            "RAAN": 81.8421,
            "Eccentricity": 0.0010672,
            "ArgumentOfPerigee": 341.5781,
            "MeanAnomaly": 18.37,
            "MeanMotion": 1.86231009,
            "RevolutionNumber": "8303"
        }
    ]
}